[{"OBJECT_NAME":"PIESAT A","OBJECT_ID":"2023-047A","EPOCH":"2026-03-09T13:45:37.273248","MEAN_MOTION":15.14302818,"ECCENTRICITY":0.0002367,"INCLINATION":97.5034,"RA_OF_ASC_NODE":257.1452,"ARG_OF_PERICENTER":89.923,"MEAN_ANOMALY":270.2273,"EPHEMERIS_TYPE":0,"CLASSIFICATION_TYPE":"U","NORAD_CAT_ID":56153,"ELEMENT_SET_NO":999,"REV_AT_EPOCH":16272,"BSTAR":0.00032318,"MEAN_MOTION_DOT":5.852e-5,"MEAN_MOTION_DDOT":0},{"OBJECT_NAME":"CZ-6A DEB","OBJECT_ID":"2022-151ZP","EPOCH":"2026-03-09T04:30:54.238464","MEAN_MOTION":15.16398418,"ECCENTRICITY":0.00295026,"INCLINATION":98.6165,"RA_OF_ASC_NODE":143.0832,"ARG_OF_PERICENTER":204.3397,"MEAN_ANOMALY":155.6441,"EPHEMERIS_TYPE":0,"CLASSIFICATION_TYPE":"U","NORAD_CAT_ID":55867,"ELEMENT_SET_NO":999,"REV_AT_EPOCH":16441,"BSTAR":0.0090941605,"MEAN_MOTION_DOT":0.00182799,"MEAN_MOTION_DDOT":0}]
